STARLINK-31675          
1 59548U 24074Q   26068.15009721 -.00003433  00000+0 -11533-3 0  9995
2 59548  43.0020 346.4129 0000091  29.6362 330.4495 15.27570707105936
BLUEBON                 
1 62688U 25009CH  26068.70316231  .00010452  00000+0  37313-3 0  9992
2 62688  97.4017 152.2033 0001193  43.3900 316.7434 15.29047253 63767
